#aV2024 12  8  0  0  0.00000000     288 DD+AD WGS84 FIT  NGA
## 2344      0.00000000   300.00000000 60652 0.0000000000000
+   31     2  3  4  5  6  7  8  9 10 11 12 13 14 15 16 17 18
+         19 20 21 22 23 24 25 26 27 28 29 30 31 32  0  0  0
+          0  0  0  0  0  0  0  0  0  0  0  0  0  0  0  0  0
+          0  0  0  0  0  0  0  0  0  0  0  0  0  0  0  0  0
+          0  0  0  0  0  0  0  0  0  0  0  0  0  0  0  0  0
++         2  2  2  2  2  2  2  2  2  2  2  2  2  2  2  2  2
++         2  2  2  2  2  2  2  2  2  2  2  2  2  2  0  0  0
++         0  0  0  0  0  0  0  0  0  0  0  0  0  0  0  0  0
++         0  0  0  0  0  0  0  0  0  0  0  0  0  0  0  0  0
++         0  0  0  0  0  0  0  0  0  0  0  0  0  0  0  0  0
%c cc cc ccc ccc cccc cccc cccc cccc ccccc ccccc ccccc ccccc
%c cc cc ccc ccc cccc cccc cccc cccc ccccc ccccc ccccc ccccc
%f  0.0000000  0.000000000  0.00000000000  0.000000000000000
%f  0.0000000  0.000000000  0.00000000000  0.000000000000000
%i    0    0    0    0      0      0      0      0         0
%i    0    0    0    0      0      0      0      0         0
/*      NGA, ST. LOUIS,MO.                                  
/*   EPHEMERIS COMPUTED FROM 2 DAYS OF DATA                 
/*   EPOCHA v9 SMOOTHER                                     
/*   G2296 IERS2010 SATIGS SATAPC                           
*  2024 12  8 19  5  0.00000000
P  2  -1400.177479 -15004.430518 -21372.734505   -296.589888                    
V  2  27198.158198  -7771.167231   3956.707678      0.087979                    
P  3 -10827.760279 -22174.063136 -10133.938080    619.840546                    
V  3   9574.972099   8284.266647 -28718.708808      0.091585                    
P  4  -1490.356817 -22869.981422  13307.365212    492.626695                    
V  4   7829.755691 -15159.964580 -25354.523877      0.062226                    
P  5  -2310.951841  17006.784775  20076.442940   -195.413716                    
V  5 -18955.555660 -17625.613596  12699.529269     -0.011637                    
P  6 -26046.240404   5502.917021    587.518918    -29.125197                    
V  6   -988.583863  -1652.099507 -32280.609317     -0.291017                    
P  7 -18161.572925  -9155.477812  17846.335515    -16.340202                    
V  7  20698.540572  -5905.834037  18150.345242      0.014774                    
P  8   5429.151092 -25646.687279  -2398.603350    433.685125                    
V  8   4180.299328  -1880.168358  31620.051840      0.092316                    
P  9  -8943.026189 -16305.745810  18843.452013    478.555895                    
V  9   8234.090440 -22748.412354 -15765.808642      0.164012                    
P 10  19803.267232   5464.998083 -16795.718049   -226.524901                    
V 10  13550.381077  16828.822252  20838.694794     -0.151961                    
P 11 -19739.877985  12278.025443  12827.944646   -752.372484                    
V 11 -16379.091870    508.561935 -25830.004008     -0.006084                    
P 12   6141.010058  22515.658294 -13013.416452   -557.127262                    
V 12 -11593.895987 -11291.628336 -25527.260184     -0.023825                    
P 13 -13702.695941  22258.067411   3695.369154    689.201128                    
V 13   -165.858081  -5658.248806  31710.233908      0.014650                    
P 14 -20923.682697  -8718.129723 -13985.955765    556.153712                    
V 14  -9836.358472 -15006.034646  23756.733762      0.077270                    
P 15  -1649.694999  26286.792969  -3259.482455    237.209173                    
V 15  -4103.558948   2950.685678  30960.874531      0.045630                    
P 16   8756.019453 -12872.026486  21108.211765   -108.287109                    
V 16  17359.502942  21604.470156   6316.659696      0.096286                    
P 17 -15761.658260    499.214091 -20988.911358    527.325829                    
V 17   9468.292741 -25900.621320  -7384.690612     -0.157213                    
P 18  20102.548157   7152.843391  15992.991410   -660.488871                    
V 18 -19470.994949   5318.214014  21917.433307      0.002692                    
P 19 -17463.148010  10284.582178 -17072.525195    571.750967                    
V 19   6987.545507 -20495.368185 -20077.916475      0.042639                    
P 20 -12780.647935   9239.159719  21437.382209    368.058760                    
V 20 -21103.233015 -16948.660893  -5434.271223     -0.003217                    
P 21   5141.940560 -16117.884991 -19785.671302     95.461835                    
V 21  25611.948540  -6264.497886  12608.701472     -0.010180                    
P 22 -17870.745928  -1521.398029 -19095.910396    -85.037413                    
V 22 -13898.762663 -21066.610855  14695.419752     -0.025476                    
P 23  20439.432100  16287.097747  -5342.384174    379.493600                    
V 23   3305.816888   6210.386294  31121.139393      0.077545                    
P 24   -397.694929  16576.293641 -21155.115368   -475.008842                    
V 24 -24993.069475   7121.533602   6591.782348      0.028970                    
P 25  17208.157689  20358.317319  -1973.340567    498.308584                    
V 25  -3545.390642    498.071685 -31199.281204     -0.004038                    
P 26  17202.094083  -4092.317305  19743.584862     -1.623964                    
V 26  17801.209922  18260.035699 -11232.442544     -0.138640                    
P 27  12533.973941 -21676.357497   7867.878744    -34.339623                    
V 27   -188.458050  10963.849364  29810.023539      0.002848                    
P 28  26000.699181  -5143.964801  -1780.412052   -502.498287                    
V 28  -1504.727810   3257.842657 -31650.670576     -0.109500                    
P 29   7238.234423  16930.352531  19054.321012   -557.555531                    
V 29 -10415.613975  21999.958471 -15674.857823      0.030615                    
P 30 -25378.869513   -831.317634   8396.721245   -265.512988                    
V 30   9529.781378  -5230.816785  28530.106175      0.080486                    
P 31  23245.848847 -10280.582221   8077.044108   -220.347919                    
V 31  10798.272343    561.536836 -29103.415401      0.007106                    
P 32  16193.940091  -4658.560844 -20256.418969   -562.137653                    
V 32  -6750.590395  25412.197393 -11320.064291      0.059207                    
EOF
